[{"OBJECT_NAME":"AAC-AIS-SAT3","OBJECT_ID":"2023-174DJ","EPOCH":"2026-03-09T21:54:37.399104","MEAN_MOTION":14.84090722,"ECCENTRICITY":0.00050238,"INCLINATION":97.6364,"RA_OF_ASC_NODE":121.8384,"ARG_OF_PERICENTER":288.7792,"MEAN_ANOMALY":71.2877,"EPHEMERIS_TYPE":0,"CLASSIFICATION_TYPE":"U","NORAD_CAT_ID":58997,"ELEMENT_SET_NO":999,"REV_AT_EPOCH":12642,"BSTAR":0.00054806577,"MEAN_MOTION_DOT":4.524e-5,"MEAN_MOTION_DDOT":0},{"OBJECT_NAME":"LEMUR-2-WOBLER","OBJECT_ID":"2026-004F","EPOCH":"2026-03-09T22:20:55.133952","MEAN_MOTION":14.87686378,"ECCENTRICITY":0.00099013,"INCLINATION":97.8047,"RA_OF_ASC_NODE":69.1214,"ARG_OF_PERICENTER":97.2215,"MEAN_ANOMALY":263.0127,"EPHEMERIS_TYPE":0,"CLASSIFICATION_TYPE":"U","NORAD_CAT_ID":67368,"ELEMENT_SET_NO":999,"REV_AT_EPOCH":853,"BSTAR":0.00072761606,"MEAN_MOTION_DOT":6.581e-5,"MEAN_MOTION_DDOT":0}]
